{
    "houses":[
        {"id":1,"name":"anil","address":"() { 0; }; touch /tmp/blns.shellshock1.fail;","ownerName":"Kinchlea","areaCode":"47682257","rent":"666","ip_address":"86.208.109.116","imgUrl":"http://dummyimage.com/197x100.png/cc0000/ffffff"},
        {"id":2, "name":"salman","address":"사회과학원 어학연구소","ownerName":"Hebbes","areaCode":"52686310","rent":"532","ip_address":"211.58.62.138","imgUrl":"http://dummyimage.com/190x100.png/5fa2dd/ffffff"},
        {"id":3, "name":"halal","address":"bangla villa societiy canon vilae main hebbas","ownerName":"Pawels","areaCode":"36800101","rent":"576","ip_address":"187.129.111.198","imgUrl":"http://dummyimage.com/165x100.png/dddddd/000000"},
        {"id":4,"name":"babu","address":"사회과학원 어학연구소","ownerName":"Van der Kruijs","areaCode":"06032434","rent":"2343","ip_address":"17.233.43.178","imgUrl":"http://dummyimage.com/161x100.png/ff4444/ffffff"},
        {"id":5,"name":"tilak","address":"␡","ownerName":"Clandillon","areaCode":"31722551","rent":"789","ip_address":"80.95.116.23","imgUrl":"http://dummyimage.com/155x100.png/cc0000/ffffff"},
        {"id":6,"name":"akash","address":"1","ownerName":"Maffezzoli","areaCode":"13734128","rent":"780","ip_address":"91.253.210.191","imgUrl":"http://dummyimage.com/103x100.png/ff4444/ffffff"},
        {"id":7,"name":"hari","address":"() { 0; }; touch /tmp/blns.shellshock1.fail;","ownerName":"Jecock","areaCode":"51660142","rent":"1254","ip_address":"246.232.79.10","imgUrl":"http://dummyimage.com/186x100.png/dddddd/000000"},
        {"id":8,"name":"ram","address":"␣","ownerName":"Iddiens","areaCode":"25021307","rent":"6578","ip_address":"155.104.184.223","imgUrl":"http://dummyimage.com/135x100.png/dddddd/000000"},
        {"id":9,"name":"pankaj","address":"1E02","ownerName":"Clemitt","areaCode":"21695750","rent":"672","ip_address":"4.181.150.123","imgUrl":"http://dummyimage.com/240x100.png/dddddd/000000"},
        {"id":10,"name":"sudhir","address":"-1E+02","ownerName":"Minmagh","areaCode":"07811036","rent":"878","ip_address":"74.85.169.113","imgUrl":"http://dummyimage.com/210x100.png/dddddd/000000"},
        {"id":11,"name":"sai","address":"00˙Ɩ$-","ownerName":"Rubinfeld","areaCode":"68016144","rent":"579","ip_address":"239.170.63.46","imgUrl":"http://dummyimage.com/167x100.png/dddddd/000000"},
        {"id":12,"name":"nikita","address":"<script>alert('hi')</script>","ownerName":"Summerly","areaCode":"59779214","rent":"902","ip_address":"141.254.176.90","imgUrl":"http://dummyimage.com/170x100.png/cc0000/ffffff"},
        {"id":13,"name":"mayur","address":"\"","ownerName":"Trett","areaCode":"548681462","rent":"531","ip_address":"29.191.230.105","imgUrl":"http://dummyimage.com/206x100.png/5fa2dd/ffffff"},
        {"id":14,"name":"asha","address":"-1E02","ownerName":"Magarrell","areaCode":"687452018","rent":"987","ip_address":"17.6.138.73","imgUrl":"http://dummyimage.com/239x100.png/dddddd/000000"},
        {"id":15,"name":"vishal","address":"̦H̬̤̗̤͝e͜ ̜̥̝̻͍̟́w̕h̖̯͓o̝͙̖͎̱̮ ҉̺̙̞̟͈W̷̼̭a̺̪͍į͈͕̭͙̯̜t̶̼̮s̘͙͖̕ ̠̫̠B̻͍͙͉̳ͅe̵h̵̬͇̫͙i̹͓̳̳̮͎̫̕n͟d̴̪̜̖ ̰͉̩͇͙̲͞ͅT͖̼͓̪͢h͏͓̮̻e̬̝̟ͅ ̤̹̝W͙̞̝͔͇͝ͅa͏͓͔̹̼̣l̴͔̰̤̟͔ḽ̫.͕","ownerName":"Killerby","areaCode":"52183259","rent":"555","ip_address":"26.186.82.75","imgUrl":"http://dummyimage.com/154x100.png/5fa2dd/ffffff"},
        {"id":16,"name":"gita","address":"̦H̬̤̗̤͝e͜ ̜̥̝̻͍̟́w̕h̖̯͓o̝͙̖͎̱̮ ҉̺̙̞̟͈W̷̼̭a̺̪͍į͈͕̭͙̯̜t̶̼̮s̘͙͖̕ ̠̫̠B̻͍͙͉̳ͅe̵h̵̬͇̫͙i̹͓̳̳̮͎̫̕n͟d̴̪̜̖ ̰͉̩͇͙̲͞ͅT͖̼͓̪͢h͏͓̮̻e̬̝̟ͅ ̤̹̝W͙̞̝͔͇͝ͅa͏͓͔̹̼̣l̴͔̰̤̟͔ḽ̫.͕","ownerName":"Tibalt","areaCode":"369873183","rent":"3452","ip_address":"124.153.144.207","imgUrl":"http://dummyimage.com/119x100.png/cc0000/ffffff"},
        {"id":17,"name":"kallu","address":"-1.00","ownerName":"Shatliffe","areaCode":"44397020","rent":"765","ip_address":"57.219.141.87","imgUrl":"http://dummyimage.com/247x100.png/ff4444/ffffff"},
        {"id":18,"name":"salmdl","address":"<img src=x onerror=alert('hi') />","ownerName":"Dutt","areaCode":"35356303","rent":"831","ip_address":"246.251.86.57","imgUrl":"http://dummyimage.com/120x100.png/ff4444/ffffff"},
        {"id":19,"name":"jay","address":"$1.00","ownerName":"Dell Casa","areaCode":"545695729","rent":"876","ip_address":"164.221.166.69","imgUrl":"http://dummyimage.com/217x100.png/ff4444/ffffff"},
        {"id":20,"name":"sahilkumar","address":"⁰⁴⁵","ownerName":"De Mico","areaCode":"09046192","rent":"1122","ip_address":"82.231.208.72","imgUrl":"http://dummyimage.com/249x100.png/5fa2dd/ffffff"}
        ]
}